{
"type": "FeatureCollection",
"name": "coordinates",
"crs": { "type": "name", "properties": { "name": "urn:ogc:def:crs:OGC:1.3:CRS84" } },
"features": [
{"type":"Feature","properties":{"fid":1},"geometry":{"type":"Polygon","coordinates":[[[79.549676163947495,29.360529670091218],[79.549968956542273,29.360705300478745],[79.55008033872268,29.360562805825044],[79.549781807550261,29.360406274030129],[79.549676163947495,29.360529670091218]]]}},
{"type":"Feature","properties":{"fid":2},"geometry":{"type":"Polygon","coordinates":[[[79.549618331060842,29.360366174837331],[79.549702173193864,29.360237751556319],[79.549816036561722,29.360306052305461],[79.54975413164307,29.360429924018717],[79.549618331060842,29.360366174837331]]]}},
{"type":"Feature","properties":{"fid":3},"geometry":{"type":"Polygon","coordinates":[[[79.549787546322491,29.360387175685936],[79.550005928475372,29.360025495926482],[79.550119520436795,29.360112954215133],[79.549906877231095,29.360455535813674],[79.549787546322491,29.360387175685936]]]}},
{"type":"Feature","properties":{"fid":4},"geometry":{"type":"Polygon","coordinates":[[[79.549830567846229,29.360052330414991],[79.549909010010794,29.359919058083428],[79.550017338033385,29.359992088661308],[79.54994449895996,29.360115841603065],[79.549830567846229,29.360052330414991]]]}},
{"type":"Feature","properties":{"fid":5},"geometry":{"type":"Polygon","coordinates":[[[79.54972559508424,29.35935661187229],[79.549815039173524,29.359218669019658],[79.54988003549461,29.359262487409911],[79.549806993236302,29.359400608649974],[79.54972559508424,29.35935661187229]]]}},
{"type":"Feature","properties":{"fid":6},"geometry":{"type":"Polygon","coordinates":[[[79.549055705580926,29.359938518762739],[79.549152994597748,29.359633005225113],[79.54958840821287,29.359776656483977],[79.549404458137232,29.360023745583963],[79.549055705580926,29.359938518762739]]]}},
{"type":"Feature","properties":{"fid":7},"geometry":{"type":"Polygon","coordinates":[[[79.550625142213718,29.359160412356399],[79.550681442377112,29.359046059645209],[79.55082243795573,29.359129024930464],[79.550750075208654,29.359219252222182],[79.550625142213718,29.359160412356399]]]}},
{"type":"Feature","properties":{"fid":8},"geometry":{"type":"Polygon","coordinates":[[[79.550820674833489,29.359253550672957],[79.550876771408952,29.359153566230347],[79.550996033883123,29.359226714822952],[79.550956474774353,29.359317298614947],[79.550820674833489,29.359253550672957]]]}},
{"type":"Feature","properties":{"fid":9},"geometry":{"type":"Polygon","coordinates":[[[79.550419014621667,29.359043207666858],[79.550475043629532,29.358948012850814],[79.550627041209225,29.359026307720271],[79.550571012293759,29.359121502602505],[79.550419014621667,29.359043207666858]]]}},
{"type":"Feature","properties":{"fid":10},"geometry":{"type":"Polygon","coordinates":[[[79.55082359076043,29.359047604251373],[79.55084053498625,29.359009466851088],[79.550981869675311,29.359068484710985],[79.550953855380243,29.359116082235229],[79.55082359076043,29.359047604251373]]]}},
{"type":"Feature","properties":{"fid":11},"geometry":{"type":"Polygon","coordinates":[[[79.550681442377112,29.359046059645209],[79.550709049872751,29.359027198890598],[79.550801450525839,29.359066524436255],[79.550773571777967,29.359104543016525],[79.550681442377112,29.359046059645209]]]}},
{"type":"Feature","properties":{"fid":12},"geometry":{"type":"Polygon","coordinates":[[[79.549697105072397,29.359437735251255],[79.549703386720168,29.359380321313822],[79.549774189663921,29.359400251961969],[79.549745903266938,29.359467007004273],[79.549697105072397,29.359437735251255]]]}},
{"type":"Feature","properties":{"fid":13},"geometry":{"type":"Polygon","coordinates":[[[79.54987416109806,29.35929116466308],[79.550102021874423,29.359418186829064],[79.55017384258079,29.359366275517417],[79.549815717768283,29.359170774524692],[79.549815174892615,29.359209090120682],[79.54987416109806,29.35929116466308]]]}},
{"type":"Feature","properties":{"fid":14},"geometry":{"type":"Polygon","coordinates":[[[79.549292151649183,29.359074067103606],[79.54932009880693,29.359031259403054],[79.549395622004354,29.359103933644036],[79.549362411250328,29.359132313549662],[79.549292151649183,29.359074067103606]]]}},
{"type":"Feature","properties":{"fid":15},"geometry":{"type":"Polygon","coordinates":[[[79.549358369495778,29.359031675663815],[79.549428629108192,29.359089922075636],[79.549450905343988,29.359061423230063],[79.549386180856089,29.358998446845224],[79.549358369495778,29.359031675663815]]]}},
{"type":"Feature","properties":{"fid":16},"geometry":{"type":"Polygon","coordinates":[[[79.549430326035051,29.358970185855785],[79.549489583292271,29.35903310276024],[79.549539263571774,29.359000111744898],[79.549468800328128,29.358956233737381],[79.549430326035051,29.358970185855785]]]}},
{"type":"Feature","properties":{"fid":17},"geometry":{"type":"Polygon","coordinates":[[[79.549518209084965,29.358942400524555],[79.549561471886165,29.358976402327855],[79.54960001403434,29.358957660721863],[79.549518209084965,29.358942400524555]]]}}
]
}
