{
  "type": "FeatureCollection",
  "properties": {
    "dataset": "AeroStitch AI Cadastral Vector Extraction",
    "total_parcels": 12,
    "crs": "EPSG:4326 (WGS 84)"
  },
  "features": [
    {
      "type": "Feature",
      "id": "PARCEL-001",
      "geometry": {
        "type": "Polygon",
        "coordinates": [
          [
            [
              -81.7052979,
              41.2269458
            ],
            [
              -81.7048743,
              41.2269458
            ],
            [
              -81.7048743,
              41.2266867
            ],
            [
              -81.7052979,
              41.2266867
            ],
            [
              -81.7052979,
              41.2269458
            ]
          ]
        ]
      },
      "properties": {
        "id": "PARCEL-001",
        "parcelId": "PARCEL-001",
        "area_sqm": 1022.93,
        "areaSqM": 1022.93,
        "confidence": 0.977,
        "survey_status": "Verified",
        "status": "Verified",
        "ownerName": "Landholder #01",
        "landUse": "Agricultural",
        "encroachment": false,
        "extractedAt": "2026-09-09T18:45:00Z"
      }
    },
    {
      "type": "Feature",
      "id": "PARCEL-002",
      "geometry": {
        "type": "Polygon",
        "coordinates": [
          [
            [
              -81.7047936,
              41.2269458
            ],
            [
              -81.70437,
              41.2269458
            ],
            [
              -81.70437,
              41.2266867
            ],
            [
              -81.7047936,
              41.2266867
            ],
            [
              -81.7047936,
              41.2269458
            ]
          ]
        ]
      },
      "properties": {
        "id": "PARCEL-002",
        "parcelId": "PARCEL-002",
        "area_sqm": 1022.93,
        "areaSqM": 1022.93,
        "confidence": 0.941,
        "survey_status": "Verified",
        "status": "Verified",
        "ownerName": "Landholder #02",
        "landUse": "Residential",
        "encroachment": false,
        "extractedAt": "2026-09-09T18:45:00Z"
      }
    },
    {
      "type": "Feature",
      "id": "PARCEL-003",
      "geometry": {
        "type": "Polygon",
        "coordinates": [
          [
            [
              -81.7042894,
              41.2269458
            ],
            [
              -81.7038657,
              41.2269458
            ],
            [
              -81.7038657,
              41.2266867
            ],
            [
              -81.7042894,
              41.2266867
            ],
            [
              -81.7042894,
              41.2269458
            ]
          ]
        ]
      },
      "properties": {
        "id": "PARCEL-003",
        "parcelId": "PARCEL-003",
        "area_sqm": 1023.17,
        "areaSqM": 1023.17,
        "confidence": 0.937,
        "survey_status": "Disputed - Encroachment",
        "status": "Disputed - Encroachment",
        "ownerName": "Landholder #03",
        "landUse": "Agricultural",
        "encroachment": true,
        "extractedAt": "2026-09-09T18:45:00Z"
      }
    },
    {
      "type": "Feature",
      "id": "PARCEL-004",
      "geometry": {
        "type": "Polygon",
        "coordinates": [
          [
            [
              -81.7052979,
              41.2266377
            ],
            [
              -81.7048743,
              41.2266377
            ],
            [
              -81.7048743,
              41.2263787
            ],
            [
              -81.7052979,
              41.2263787
            ],
            [
              -81.7052979,
              41.2266377
            ]
          ]
        ]
      },
      "properties": {
        "id": "PARCEL-004",
        "parcelId": "PARCEL-004",
        "area_sqm": 1022.54,
        "areaSqM": 1022.54,
        "confidence": 0.974,
        "survey_status": "Verified",
        "status": "Verified",
        "ownerName": "Landholder #04",
        "landUse": "Residential",
        "encroachment": false,
        "extractedAt": "2026-09-09T18:45:00Z"
      }
    },
    {
      "type": "Feature",
      "id": "PARCEL-005",
      "geometry": {
        "type": "Polygon",
        "coordinates": [
          [
            [
              -81.7047936,
              41.2266377
            ],
            [
              -81.70437,
              41.2266377
            ],
            [
              -81.70437,
              41.2263787
            ],
            [
              -81.7047936,
              41.2263787
            ],
            [
              -81.7047936,
              41.2266377
            ]
          ]
        ]
      },
      "properties": {
        "id": "PARCEL-005",
        "parcelId": "PARCEL-005",
        "area_sqm": 1022.54,
        "areaSqM": 1022.54,
        "confidence": 0.939,
        "survey_status": "Under Review",
        "status": "Under Review",
        "ownerName": "Landholder #05",
        "landUse": "Agricultural",
        "encroachment": false,
        "extractedAt": "2026-09-09T18:45:00Z"
      }
    },
    {
      "type": "Feature",
      "id": "PARCEL-006",
      "geometry": {
        "type": "Polygon",
        "coordinates": [
          [
            [
              -81.7042894,
              41.2266377
            ],
            [
              -81.7038657,
              41.2266377
            ],
            [
              -81.7038657,
              41.2263787
            ],
            [
              -81.7042894,
              41.2263787
            ],
            [
              -81.7042894,
              41.2266377
            ]
          ]
        ]
      },
      "properties": {
        "id": "PARCEL-006",
        "parcelId": "PARCEL-006",
        "area_sqm": 1022.78,
        "areaSqM": 1022.78,
        "confidence": 0.968,
        "survey_status": "Verified",
        "status": "Verified",
        "ownerName": "Landholder #06",
        "landUse": "Residential",
        "encroachment": false,
        "extractedAt": "2026-09-09T18:45:00Z"
      }
    },
    {
      "type": "Feature",
      "id": "PARCEL-007",
      "geometry": {
        "type": "Polygon",
        "coordinates": [
          [
            [
              -81.7052979,
              41.2263296
            ],
            [
              -81.7048743,
              41.2263296
            ],
            [
              -81.7048743,
              41.2260706
            ],
            [
              -81.7052979,
              41.2260706
            ],
            [
              -81.7052979,
              41.2263296
            ]
          ]
        ]
      },
      "properties": {
        "id": "PARCEL-007",
        "parcelId": "PARCEL-007",
        "area_sqm": 1022.54,
        "areaSqM": 1022.54,
        "confidence": 0.94,
        "survey_status": "Verified",
        "status": "Verified",
        "ownerName": "Landholder #07",
        "landUse": "Agricultural",
        "encroachment": false,
        "extractedAt": "2026-09-09T18:45:00Z"
      }
    },
    {
      "type": "Feature",
      "id": "PARCEL-008",
      "geometry": {
        "type": "Polygon",
        "coordinates": [
          [
            [
              -81.7047936,
              41.2263296
            ],
            [
              -81.70437,
              41.2263296
            ],
            [
              -81.70437,
              41.2260706
            ],
            [
              -81.7047936,
              41.2260706
            ],
            [
              -81.7047936,
              41.2263296
            ]
          ]
        ]
      },
      "properties": {
        "id": "PARCEL-008",
        "parcelId": "PARCEL-008",
        "area_sqm": 1022.54,
        "areaSqM": 1022.54,
        "confidence": 0.955,
        "survey_status": "Verified",
        "status": "Verified",
        "ownerName": "Landholder #08",
        "landUse": "Residential",
        "encroachment": false,
        "extractedAt": "2026-09-09T18:45:00Z"
      }
    },
    {
      "type": "Feature",
      "id": "PARCEL-009",
      "geometry": {
        "type": "Polygon",
        "coordinates": [
          [
            [
              -81.7042894,
              41.2263296
            ],
            [
              -81.7038657,
              41.2263296
            ],
            [
              -81.7038657,
              41.2260706
            ],
            [
              -81.7042894,
              41.2260706
            ],
            [
              -81.7042894,
              41.2263296
            ]
          ]
        ]
      },
      "properties": {
        "id": "PARCEL-009",
        "parcelId": "PARCEL-009",
        "area_sqm": 1022.78,
        "areaSqM": 1022.78,
        "confidence": 0.956,
        "survey_status": "Disputed - Encroachment",
        "status": "Disputed - Encroachment",
        "ownerName": "Landholder #09",
        "landUse": "Agricultural",
        "encroachment": true,
        "extractedAt": "2026-09-09T18:45:00Z"
      }
    },
    {
      "type": "Feature",
      "id": "PARCEL-010",
      "geometry": {
        "type": "Polygon",
        "coordinates": [
          [
            [
              -81.7052979,
              41.2260216
            ],
            [
              -81.7048743,
              41.2260216
            ],
            [
              -81.7048743,
              41.2257625
            ],
            [
              -81.7052979,
              41.2257625
            ],
            [
              -81.7052979,
              41.2260216
            ]
          ]
        ]
      },
      "properties": {
        "id": "PARCEL-010",
        "parcelId": "PARCEL-010",
        "area_sqm": 1022.94,
        "areaSqM": 1022.94,
        "confidence": 0.971,
        "survey_status": "Verified",
        "status": "Verified",
        "ownerName": "Landholder #10",
        "landUse": "Residential",
        "encroachment": false,
        "extractedAt": "2026-09-09T18:45:00Z"
      }
    },
    {
      "type": "Feature",
      "id": "PARCEL-011",
      "geometry": {
        "type": "Polygon",
        "coordinates": [
          [
            [
              -81.7047936,
              41.2260216
            ],
            [
              -81.70437,
              41.2260216
            ],
            [
              -81.70437,
              41.2257625
            ],
            [
              -81.7047936,
              41.2257625
            ],
            [
              -81.7047936,
              41.2260216
            ]
          ]
        ]
      },
      "properties": {
        "id": "PARCEL-011",
        "parcelId": "PARCEL-011",
        "area_sqm": 1022.94,
        "areaSqM": 1022.94,
        "confidence": 0.969,
        "survey_status": "Under Review",
        "status": "Under Review",
        "ownerName": "Landholder #11",
        "landUse": "Agricultural",
        "encroachment": false,
        "extractedAt": "2026-09-09T18:45:00Z"
      }
    },
    {
      "type": "Feature",
      "id": "PARCEL-012",
      "geometry": {
        "type": "Polygon",
        "coordinates": [
          [
            [
              -81.7042894,
              41.2260216
            ],
            [
              -81.7038657,
              41.2260216
            ],
            [
              -81.7038657,
              41.2257625
            ],
            [
              -81.7042894,
              41.2257625
            ],
            [
              -81.7042894,
              41.2260216
            ]
          ]
        ]
      },
      "properties": {
        "id": "PARCEL-012",
        "parcelId": "PARCEL-012",
        "area_sqm": 1023.18,
        "areaSqM": 1023.18,
        "confidence": 0.945,
        "survey_status": "Verified",
        "status": "Verified",
        "ownerName": "Landholder #12",
        "landUse": "Residential",
        "encroachment": false,
        "extractedAt": "2026-09-09T18:45:00Z"
      }
    }
  ]
}